{
  "type": "FeatureCollection",
  "features": [
    {
      "type": "Feature",
      "properties": {
        "norad_id": 33805,
        "name": "COSMOS 2251 DEB",
        "group": "cosmos-2251-debris",
        "lat": -2.746420506682519,
        "lon": -47.65162965862279,
        "alt_km": 738.0436432173219,
        "timestamp": "2025-12-11T18:59:46.467801+00:00",
        "meta_object_name": "COSMOS 2251 DEB",
        "meta_object_id": "1993-036AW",
        "meta_epoch": "2025-12-10T21:35:57.102144",
        "meta_mean_motion": 14.57848804,
        "meta_eccentricity": 0.0060276,
        "meta_inclination": 74.0305,
        "meta_ra_of_asc_node": 314.8308,
        "meta_arg_of_pericenter": 144.3337,
        "meta_mean_anomaly": 216.1879,
        "meta_ephemeris_type": 0,
        "meta_classification_type": "U",
        "meta_norad_cat_id": 33805,
        "meta_element_set_no": 999,
        "meta_rev_at_epoch": 89200,
        "meta_bstar": 0.00036624,
        "meta_mean_motion_dot": 1.689e-05,
        "meta_mean_motion_ddot": 0,
        "tle_line1": "1 33805U 93036AW  25344.89996646  .00001689  00000+0  36624-3 0  9992",
        "tle_line2": "2 33805  74.0305 314.8308 0060276 144.3337 216.1879 14.57848804892005"
      },
      "geometry": {
        "type": "Point",
        "coordinates": [
          -47.65162965862279,
          -2.746420506682519
        ]
      }
    },
    {
      "type": "Feature",
      "properties": {
        "norad_id": 33811,
        "name": "COSMOS 2251 DEB",
        "group": "cosmos-2251-debris",
        "lat": 59.93140705273831,
        "lon": -25.31619037788694,
        "alt_km": 528.129270581283,
        "timestamp": "2025-12-11T18:59:46.467817+00:00",
        "meta_object_name": "COSMOS 2251 DEB",
        "meta_object_id": "1993-036BC",
        "meta_epoch": "2025-12-11T06:26:33.575424",
        "meta_mean_motion": 15.05196272,
        "meta_eccentricity": 0.00306572,
        "meta_inclination": 73.8382,
        "meta_ra_of_asc_node": 305.7074,
        "meta_arg_of_pericenter": 26.426,
        "meta_mean_anomaly": 84.5247,
        "meta_ephemeris_type": 0,
        "meta_classification_type": "U",
        "meta_norad_cat_id": 33811,
        "meta_element_set_no": 999,
        "meta_rev_at_epoch": 89996,
        "meta_bstar": 0.0021880951,
        "meta_mean_motion_dot": 0.00031648,
        "meta_mean_motion_ddot": 0,
        "tle_line1": "1 33811U 93036BC  25345.26844416  .00031648  00000+0  21881-2 0  9994",
        "tle_line2": "2 33811  73.8382 305.7074 0030657  26.4260  84.5247 15.05196272899965"
      },
      "geometry": {
        "type": "Point",
        "coordinates": [
          -25.31619037788694,
          59.93140705273831
        ]
      }
    },
    {
      "type": "Feature",
      "properties": {
        "norad_id": 33815,
        "name": "COSMOS 2251 DEB",
        "group": "cosmos-2251-debris",
        "lat": 73.8892002122697,
        "lon": -96.17392949355913,
        "alt_km": 507.52534775749245,
        "timestamp": "2025-12-11T18:59:46.467829+00:00",
        "meta_object_name": "COSMOS 2251 DEB",
        "meta_object_id": "1993-036BG",
        "meta_epoch": "2025-12-10T00:34:36.803712",
        "meta_mean_motion": 15.1696459,
        "meta_eccentricity": 0.00027751,
        "meta_inclination": 73.9523,
        "meta_ra_of_asc_node": 182.2836,
        "meta_arg_of_pericenter": 231.9732,
        "meta_mean_anomaly": 286.9539,
        "meta_ephemeris_type": 0,
        "meta_classification_type": "U",
        "meta_norad_cat_id": 33815,
        "meta_element_set_no": 999,
        "meta_rev_at_epoch": 88329,
        "meta_bstar": 0.0073023687,
        "meta_mean_motion_dot": 0.00147157,
        "meta_mean_motion_ddot": 0,
        "tle_line1": "1 33815U 93036BG  25344.02403708  .00147157  00000+0  73024-2 0  9995",
        "tle_line2": "2 33815  73.9523 182.2836 0002775 231.9732 286.9539 15.16964590883297"
      },
      "geometry": {
        "type": "Point",
        "coordinates": [
          -96.17392949355913,
          73.8892002122697
        ]
      }
    },
    {
      "type": "Feature",
      "properties": {
        "norad_id": 33816,
        "name": "COSMOS 2251 DEB",
        "group": "cosmos-2251-debris",
        "lat": 49.229249460771165,
        "lon": 126.57931632955035,
        "alt_km": 875.6831630739389,
        "timestamp": "2025-12-11T18:59:46.467841+00:00",
        "meta_object_name": "COSMOS 2251 DEB",
        "meta_object_id": "1993-036BH",
        "meta_epoch": "2025-12-10T18:25:07.599648",
        "meta_mean_motion": 13.81779424,
        "meta_eccentricity": 0.02647961,
        "meta_inclination": 73.8947,
        "meta_ra_of_asc_node": 108.7386,
        "meta_arg_of_pericenter": 122.0549,
        "meta_mean_anomaly": 240.6589,
        "meta_ephemeris_type": 0,
        "meta_classification_type": "U",
        "meta_norad_cat_id": 33816,
        "meta_element_set_no": 999,
        "meta_rev_at_epoch": 84646,
        "meta_bstar": 0.00077978589,
        "meta_mean_motion_dot": 1.068e-05,
        "meta_mean_motion_ddot": 0,
        "tle_line1": "1 33816U 93036BH  25344.76744907  .00001068  00000+0  77979-3 0  9990",
        "tle_line2": "2 33816  73.8947 108.7386 0264796 122.0549 240.6589 13.81779424846469"
      },
      "geometry": {
        "type": "Point",
        "coordinates": [
          126.57931632955035,
          49.229249460771165
        ]
      }
    },
    {
      "type": "Feature",
      "properties": {
        "norad_id": 33818,
        "name": "COSMOS 2251 DEB",
        "group": "cosmos-2251-debris",
        "lat": -4.299919888132105,
        "lon": 166.97161533008992,
        "alt_km": 550.3463022278083,
        "timestamp": "2025-12-11T18:59:46.467858+00:00",
        "meta_object_name": "COSMOS 2251 DEB",
        "meta_object_id": "1993-036BK",
        "meta_epoch": "2025-12-10T23:04:43.713984",
        "meta_mean_motion": 15.12257187,
        "meta_eccentricity": 0.0027544,
        "meta_inclination": 74.0759,
        "meta_ra_of_asc_node": 169.9158,
        "meta_arg_of_pericenter": 159.4021,
        "meta_mean_anomaly": 0.1181,
        "meta_ephemeris_type": 0,
        "meta_classification_type": "U",
        "meta_norad_cat_id": 33818,
        "meta_element_set_no": 999,
        "meta_rev_at_epoch": 89835,
        "meta_bstar": 0.0031578,
        "meta_mean_motion_dot": 0.00055504,
        "meta_mean_motion_ddot": 0,
        "tle_line1": "1 33818U 93036BK  25344.96161706  .00055504  00000+0  31578-2 0  9992",
        "tle_line2": "2 33818  74.0759 169.9158 0027544 159.4021   0.1181 15.12257187898353"
      },
      "geometry": {
        "type": "Point",
        "coordinates": [
          166.97161533008992,
          -4.299919888132105
        ]
      }
    },
    {
      "type": "Feature",
      "properties": {
        "norad_id": 33819,
        "name": "COSMOS 2251 DEB",
        "group": "cosmos-2251-debris",
        "lat": 31.39184500793504,
        "lon": -138.47489326507772,
        "alt_km": 733.3584179919862,
        "timestamp": "2025-12-11T18:59:46.467871+00:00",
        "meta_object_name": "COSMOS 2251 DEB",
        "meta_object_id": "1993-036BL",
        "meta_epoch": "2025-12-11T00:58:03.698112",
        "meta_mean_motion": 14.322125,
        "meta_eccentricity": 0.00890221,
        "meta_inclination": 74.1789,
        "meta_ra_of_asc_node": 212.9196,
        "meta_arg_of_pericenter": 74.7581,
        "meta_mean_anomaly": 47.2281,
        "meta_ephemeris_type": 0,
        "meta_classification_type": "U",
        "meta_norad_cat_id": 33819,
        "meta_element_set_no": 999,
        "meta_rev_at_epoch": 87471,
        "meta_bstar": 0.00088699488,
        "meta_mean_motion_dot": 2.474e-05,
        "meta_mean_motion_ddot": 0,
        "tle_line1": "1 33819U 93036BL  25345.04032058  .00002474  00000+0  88699-3 0  9995",
        "tle_line2": "2 33819  74.1789 212.9196 0089022  74.7581  47.2281 14.32212500874716"
      },
      "geometry": {
        "type": "Point",
        "coordinates": [
          -138.47489326507772,
          31.39184500793504
        ]
      }
    },
    {
      "type": "Feature",
      "properties": {
        "norad_id": 33821,
        "name": "COSMOS 2251 DEB",
        "group": "cosmos-2251-debris",
        "lat": 62.069090333176646,
        "lon": -67.85278913277523,
        "alt_km": 468.74069757162124,
        "timestamp": "2025-12-11T18:59:46.467883+00:00",
        "meta_object_name": "COSMOS 2251 DEB",
        "meta_object_id": "1993-036BN",
        "meta_epoch": "2025-12-11T04:19:51.884832",
        "meta_mean_motion": 15.2515417,
        "meta_eccentricity": 0.00522853,
        "meta_inclination": 74.0302,
        "meta_ra_of_asc_node": 146.133,
        "meta_arg_of_pericenter": 180.1617,
        "meta_mean_anomaly": 179.9576,
        "meta_ephemeris_type": 0,
        "meta_classification_type": "U",
        "meta_norad_cat_id": 33821,
        "meta_element_set_no": 999,
        "meta_rev_at_epoch": 74977,
        "meta_bstar": 0.0018317448,
        "meta_mean_motion_dot": 0.00048029,
        "meta_mean_motion_ddot": 0,
        "tle_line1": "1 33821U 93036BN  25345.18046163  .00048029  00000+0  18317-2 0  9990",
        "tle_line2": "2 33821  74.0302 146.1330 0052285 180.1617 179.9576 15.25154170749778"
      },
      "geometry": {
        "type": "Point",
        "coordinates": [
          -67.85278913277523,
          62.069090333176646
        ]
      }
    }
  ]
}